[{"OBJECT_NAME":"STARLINK-36166","OBJECT_ID":"2025-298K","EPOCH":"2026-03-09T22:00:01.999584","MEAN_MOTION":14.98341724,"ECCENTRICITY":0.00028696,"INCLINATION":70.001,"RA_OF_ASC_NODE":14.0309,"ARG_OF_PERICENTER":267.1586,"MEAN_ANOMALY":236.0639,"EPHEMERIS_TYPE":0,"CLASSIFICATION_TYPE":"U","NORAD_CAT_ID":67084,"ELEMENT_SET_NO":999,"REV_AT_EPOCH":590,"BSTAR":-0.0015931599,"MEAN_MOTION_DOT":-0.00019056,"MEAN_MOTION_DDOT":0},{"OBJECT_NAME":"DIADEME 1","OBJECT_ID":"1967-011A","EPOCH":"2026-03-09T04:18:35.665344","MEAN_MOTION":14.73682571,"ECCENTRICITY":0.02083573,"INCLINATION":39.9159,"RA_OF_ASC_NODE":131.181,"ARG_OF_PERICENTER":280.4589,"MEAN_ANOMALY":77.2777,"EPHEMERIS_TYPE":0,"CLASSIFICATION_TYPE":"U","NORAD_CAT_ID":2674,"ELEMENT_SET_NO":999,"REV_AT_EPOCH":7534,"BSTAR":0.00083818809,"MEAN_MOTION_DOT":7.747e-5,"MEAN_MOTION_DDOT":0}]
